NORAD_CAT_ID,OBJECT_NAME,OBJECT_TYPE,EPOCH,MEAN_MOTION,ECCENTRICITY,INCLINATION,RA_OF_ASC_NODE,ARG_OF_PERICENTER,MEAN_ANOMALY,BSTAR,MEAN_MOTION_DOT,MEAN_MOTION_DDOT,TLE_LINE0,TLE_LINE1,TLE_LINE2,SEMIMAJOR_AXIS,PERIOD,APOGEE,PERIGEE,DECAYED
55934.0,STARLINK-5927,PAYLOAD,2023-07-15 22:00:00,15.28208559,0.0003258,69.9987,205.4399,271.2445,130.4824,-0.034675,-0.00878788,0.0,0 STARLINK-5927,1 55934U 23037W   23196.91667824 -.00878788  00000-0 -34675-1 0  9999,2 55934  69.9987 205.4399 0003258 271.2445 130.4824 15.28208559 19334,6859.305,94.228,483.404,478.935,0.0
55934.0,STARLINK-5927,PAYLOAD,2023-07-16 14:00:01,15.26938917,0.0003109,69.9984,203.6813,278.1023,188.7008,-0.039234,-0.00962137,0.0,0 STARLINK-5927,1 55934U 23037W   23197.58334491 -.00962137  00000-0 -39234-1 0  9992,2 55934  69.9984 203.6813 0003109 278.1023 188.7008 15.26938917 19432,6863.106,94.306,487.105,482.838,0.0
55934.0,STARLINK-5927,PAYLOAD,2023-07-17 02:00:01,15.25971447,0.0003219,69.999,202.3648,269.9437,63.6159,-0.040967,-0.00974602,0.0,0 STARLINK-5927,1 55934U 23037W   23198.08334491 -.00974602  00000-0 -40967-1 0  9993,2 55934  69.9990 202.3648 0003219 269.9437  63.6159 15.25971447 19511,6866.007,94.366,490.082,485.662,0.0
55934.0,STARLINK-5927,PAYLOAD,2023-07-17 14:00:01,15.24984535,0.0003044,69.9985,201.0501,275.3597,283.2659,-0.041883,-0.00967687,0.0,0 STARLINK-5927,1 55934U 23037W   23198.58335648 -.00967687  00000-0 -41883-1 0  9996,2 55934  69.9985 201.0501 0003044 275.3597 283.2659 15.24984535 19597,6868.969,94.427,492.925,488.743,0.0
55934.0,STARLINK-5927,PAYLOAD,2023-07-18 06:00:00,15.23633779,0.0003117,69.9991,199.3003,272.5179,343.3254,-0.040173,-0.00896656,0.0,0 STARLINK-5927,1 55934U 23037W   23199.25001157 -.00896656  00000-0 -40173-1 0  9994,2 55934  69.9991 199.3003 0003117 272.5179 343.3254 15.23633779 19696,6873.028,94.511,497.035,492.751,0.0
55934.0,STARLINK-5927,PAYLOAD,2023-07-18 22:00:00,15.22350551,0.0003177,69.9989,197.554,266.7647,43.1944,-0.042393,-0.00909833,0.0,0 STARLINK-5927,1 55934U 23037W   23199.91667824 -.00909833  00000-0 -42393-1 0  9994,2 55934  69.9989 197.5540 0003177 266.7647  43.1944 15.22350551 19795,6876.89,94.591,500.94,496.57,0.0
55934.0,STARLINK-5927,PAYLOAD,2023-07-19 14:00:01,15.21071164,0.0003213,69.999,195.8111,273.6812,87.2783,-0.047199,-0.00970557,0.0,0 STARLINK-5927,1 55934U 23037W   23200.58334491 -.00970557  00000-0 -47199-1 0  9991,2 55934  69.9990 195.8111 0003213 273.6812  87.2783 15.21071164 19894,6880.745,94.67,504.821,500.4,0.0
55934.0,STARLINK-5927,PAYLOAD,2023-07-20 06:00:00,15.19723066,0.0003158,69.9996,194.0718,273.0527,135.7977,-0.04521,-0.00899032,0.0,0 STARLINK-5927,1 55934U 23037W   23201.25001157 -.00899032  00000-0 -45210-1 0  9996,2 55934  69.9996 194.0718 0003158 273.0527 135.7977 15.19723066 19996,6884.814,94.754,508.853,504.505,0.0
55934.0,STARLINK-5927,PAYLOAD,2023-07-20 22:00:00,15.18442625,0.0003098,69.9996,192.3358,267.2641,186.3156,-0.048085,-0.00919693,0.0,0 STARLINK-5927,1 55934U 23037W   23201.91667824 -.00919693  00000-0 -48085-1 0  9997,2 55934  69.9996 192.3358 0003098 267.2641 186.3156 15.18442625 20094,6888.684,94.834,512.683,508.415,0.0
55934.0,STARLINK-5927,PAYLOAD,2023-07-21 14:00:01,15.171534,0.0002992,69.9995,190.6035,272.0684,223.1268,-0.052478,-0.00963504,0.0,0 STARLINK-5927,1 55934U 23037W   23202.58334491 -.00963504  00000-0 -52478-1 0  9993,2 55934  69.9995 190.6035 0002992 272.0684 223.1268 15.17153400 20193,6892.586,94.915,516.513,512.388,0.0
55934.0,STARLINK-5927,PAYLOAD,2023-07-24 14:00:01,15.11273949,0.0003091,69.9997,182.8508,270.2363,13.5111,-0.061184,-0.00952216,0.0,0 STARLINK-5927,1 55934U 23037W   23205.58334491 -.00952216  00000-0 -61184-1 0  9998,2 55934  69.9997 182.8508 0003091 270.2363  13.5111 15.11273949  2102,6910.451,95.284,534.452,530.18,0.0
55934.0,STARLINK-5927,PAYLOAD,2023-07-25 14:00:01,15.09312843,0.0003118,69.9996,180.2822,269.5766,49.6702,-0.064121,-0.00945728,0.0,0 STARLINK-5927,1 55934U 23037W   23206.58335648 -.00945728  00000-0 -64121-1 0  9998,2 55934  69.9996 180.2822 0003118 269.5766  49.6702 15.09312843  2256,6916.435,95.408,540.457,536.144,0.0
55934.0,STARLINK-5927,PAYLOAD,2023-07-26 14:00:01,15.07351489,0.0003118,69.9994,177.7214,269.2909,78.2888,-0.067089,-0.00938339,0.0,0 STARLINK-5927,1 55934U 23037W   23207.58334491 -.00938339  00000-0 -67089-1 0  9990,2 55934  69.9994 177.7214 0003118 269.2909  78.2888 15.07351489  2403,6922.434,95.532,546.457,542.141,0.0
55934.0,STARLINK-5927,PAYLOAD,2023-07-26 22:00:01,15.06720548,0.0003175,69.9997,176.8696,264.6403,90.8898,-0.069291,-0.00951569,0.0,0 STARLINK-5927,1 55934U 23037W   23207.91668981 -.00951569  00000-0 -69291-1 0  9998,2 55934  69.9997 176.8696 0003175 264.6403  90.8898 15.06720548  2452,6924.366,95.572,548.43,544.033,0.0
55934.0,STARLINK-5927,PAYLOAD,2023-07-27 06:00:00,15.06019708,0.0003089,69.9995,176.0186,270.4156,92.1893,-0.065055,-0.00881847,0.0,0 STARLINK-5927,1 55934U 23037W   23208.25001157 -.00881847  00000-0 -65055-1 0  9997,2 55934  69.9995 176.0186 0003089 270.4156  92.1893 15.06019708 21056,6926.514,95.616,550.519,546.24,0.0
55934.0,STARLINK-5927,PAYLOAD,2023-07-27 14:00:01,15.0538892,0.0003061,69.9992,175.1684,268.773,100.1621,-0.06998,-0.00928809,0.0,0 STARLINK-5927,1 55934U 23037W   23208.58334491 -.00928809  00000-0 -69980-1 0  9994,2 55934  69.9992 175.1684 0003061 268.7730 100.1621 15.05388920  2551,6928.449,95.656,552.435,548.193,0.0
55934.0,STARLINK-5927,PAYLOAD,2023-07-27 22:00:00,15.04766402,0.0003164,69.9995,174.3192,264.9368,109.5371,-0.073538,-0.00968598,0.0,0 STARLINK-5927,1 55934U 23037W   23208.91667824 -.00968598  00000-0 -73538-1 0  9993,2 55934  69.9995 174.3192 0003164 264.9368 109.5371 15.04766402 21154,6930.36,95.696,554.418,550.032,0.0
55934.0,STARLINK-5927,PAYLOAD,2023-07-28 14:00:01,15.03427348,0.0003013,69.9992,172.6231,268.7636,114.4861,-0.073072,-0.00920746,0.0,0 STARLINK-5927,1 55934U 23037W   23209.58334491 -.00920746  00000-0 -73072-1 0  9994,2 55934  69.9992 172.6231 0003013 268.7636 114.4861 15.03427348 21251,6934.474,95.781,558.429,554.25,0.0
55934.0,STARLINK-5927,PAYLOAD,2023-07-29 14:00:01,15.01466348,0.0002978,69.9994,170.0857,268.8894,121.6967,-0.076333,-0.00913569,0.0,0 STARLINK-5927,1 55934U 23037W   23210.58335648 -.00913569  00000-0 -76333-1 0  9999,2 55934  69.9994 170.0857 0002978 268.8894 121.6967 15.01466348 21400,6940.511,95.906,564.443,560.309,0.0
55934.0,STARLINK-5927,PAYLOAD,2023-07-30 14:00:01,14.99337397,0.0002704,69.9996,167.5561,267.6556,123.1245,-0.011472,-0.00137874,0.0,0 STARLINK-5927,1 55934U 23037W   23211.58334491 -.00137874  00000-0 -11472-1 0  9995,2 55934  69.9996 167.5561 0002704 267.6556 123.1245 14.99337397 21553,6947.079,96.042,570.823,567.066,0.0
55934.0,STARLINK-5927,PAYLOAD,2023-07-30 22:00:00,14.992944,0.0002732,70.0001,166.7145,264.6747,124.7261,-0.00024376,-3.075e-05,0.0,0 STARLINK-5927,1 55934U 23037W   23211.91667824 -.00003075  00000-0 -24376-3 0  9995,2 55934  70.0001 166.7145 0002732 264.6747 124.7261 14.99294400 21600,6947.212,96.045,570.975,567.179,0.0
55934.0,STARLINK-5927,PAYLOAD,2023-08-01 06:00:00,14.99288921,0.0002738,70.0008,163.3479,270.428,113.5006,0.0035431,0.00043515,0.0,0 STARLINK-5927,1 55934U 23037W   23213.25001157  .00043515  00000-0  35431-2 0  9999,2 55934  70.0008 163.3479 0002738 270.4280 113.5006 14.99288921 21809,6947.229,96.046,570.996,567.192,0.0
55934.0,STARLINK-5927,PAYLOAD,2023-08-01 22:00:00,14.99340244,0.0002775,70.0011,161.6646,262.7616,118.4742,-0.00076989,-9.511e-05,0.0,0 STARLINK-5927,1 55934U 23037W   23213.91667824 -.00009511  00000-0 -76989-3 0  9995,2 55934  70.0011 161.6646 0002775 262.7616 118.4742 14.99340244 21907,6947.071,96.042,570.863,567.008,0.0
55934.0,STARLINK-5927,PAYLOAD,2023-08-02 14:00:01,14.99292992,0.0002724,70.0011,159.9811,267.969,110.6307,0.00038123,4.573e-05,0.0,0 STARLINK-5927,1 55934U 23037W   23214.58334491  .00004573  00000-0  38123-3 0  9999,2 55934  70.0011 159.9811 0002724 267.9690 110.6307 14.99292992 22003,6947.217,96.045,570.974,567.189,0.0
55934.0,STARLINK-5927,PAYLOAD,2023-08-04 02:44:44,14.9930189,0.0002462,69.9996,156.1156,267.2504,92.8374,-0.00015826,-2.03e-05,0.0,0 STARLINK-5927,1 55934U 23037W   23216.11440635 -.00002030  00000-0 -15826-3 0  9991,2 55934  69.9996 156.1156 0002462 267.2504  92.8374 14.99301890 22237,6947.189,96.045,570.764,567.344,0.0
55934.0,STARLINK-5927,PAYLOAD,2023-08-05 02:45:48,14.99312796,0.0002562,69.9994,153.5892,268.1186,91.968,4.4579e-05,4.52e-06,0.0,0 STARLINK-5927,1 55934U 23037W   23217.11514114  .00000452  00000-0  44579-4 0  9998,2 55934  69.9994 153.5892 0002562 268.1186  91.9680 14.99312796 22383,6947.155,96.044,570.8,567.24,0.0
55934.0,STARLINK-5927,PAYLOAD,2023-08-06 02:46:53,14.99297999,0.0002303,70.0001,151.0635,261.062,99.0279,5.2655e-05,5.51e-06,0.0,0 STARLINK-5927,1 55934U 23037W   23218.11589898  .00000551  00000-0  52655-4 0  9994,2 55934  70.0001 151.0635 0002303 261.0620  99.0279 14.99297999 22538,6947.201,96.045,570.666,567.466,0.0
55934.0,STARLINK-5927,PAYLOAD,2023-08-07 01:11:55,14.99295632,0.0002342,70.0,148.7043,261.7861,98.3033,-0.00015469,-1.986e-05,0.0,0 STARLINK-5927,1 55934U 23037W   23219.04994236 -.00001986  00000-0 -15469-3 0  9999,2 55934  70.0000 148.7043 0002342 261.7861  98.3033 14.99295632 22677,6947.208,96.045,570.7,567.446,0.0
55934.0,STARLINK-5927,PAYLOAD,2023-08-07 18:48:41,14.99302638,0.0002653,70.0,146.8514,271.7097,88.3758,6.1751e-05,6.62e-06,0.0,0 STARLINK-5927,1 55934U 23037W   23219.78381711  .00000662  00000-0  61751-4 0  9992,2 55934  70.0000 146.8514 0002653 271.7097  88.3758 14.99302638 22786,6947.187,96.045,570.895,567.209,0.0
55934.0,STARLINK-5927,PAYLOAD,2023-08-08 01:12:58,14.99309576,0.000242,69.9995,146.177,263.1616,96.9268,9.2288e-05,1.036e-05,0.0,0 STARLINK-5927,1 55934U 23037W   23220.05067761  .00001036  00000-0  92288-4 0  9995,2 55934  69.9995 146.1770 0002420 263.1616  96.9268 14.99309576 22821,6947.165,96.044,570.711,567.349,0.0
